start=new Date('2023-02-05T00:00:00.000Z').valueOf();
sats=[{"MEAN_ELEMENT_THEORY":"SGP4","BSTAR":"0.00014379000000","TIME_SYSTEM":"UTC","APOAPSIS":"540.613","LAUNCH_DATE":"2022-04-29","EPHEMERIS_TYPE":"0","ELEMENT_SET_NO":"999","CLASSIFICATION_TYPE":"U","NORAD_CAT_ID":"52358","TLE_LINE1":"1 52358U 22045AD  23035.93233884  .00002002  00000-0  14379-3 0  9990","GP_ID":"224416714","RA_OF_ASC_NODE":"226.3129","CENTER_NAME":"EARTH","REV_AT_EPOCH":"4538","PERIOD":"95.437","RCS_SIZE":"LARGE","OBJECT_ID":"2022-045AD","SITE":"AFETR","OBJECT_NAME":"STARLINK-3837","SEMIMAJOR_AXIS":"6917.856","EPOCH":"2023-02-04T22:22:34.075776","MEAN_MOTION":"15.08847820","TLE_LINE2":"2 52358  53.2139 226.3129 0001288  89.1658 270.9482 15.08847820 45384","DECAY_DATE":null,"PERIAPSIS":"538.830","ARG_OF_PERICENTER":"89.1658","REF_FRAME":"TEME","INCLINATION":"53.2139","MEAN_MOTION_DDOT":"0.0000000000000","OBJECT_TYPE":"PAYLOAD","ECCENTRICITY":"0.00012880","FILE":"3772416","MEAN_ANOMALY":"270.9482","MEAN_MOTION_DOT":"0.00002002","COUNTRY_CODE":"US"},{"DECAY_DATE":null,"PERIAPSIS":"538.821","INCLINATION":"53.2149","REF_FRAME":"TEME","ARG_OF_PERICENTER":"84.9529","MEAN_MOTION":"15.08844907","TLE_LINE2":"2 52359  53.2149 226.5405 0001315  84.9529 275.1613 15.08844907 45371","EPOCH":"2023-02-04T21:08:22.864416","OBJECT_NAME":"STARLINK-3853","SEMIMAJOR_AXIS":"6917.865","SITE":"AFETR","MEAN_MOTION_DOT":"0.00001026","COUNTRY_CODE":"US","FILE":"3772514","MEAN_ANOMALY":"275.1613","ECCENTRICITY":"0.00013150","OBJECT_TYPE":"PAYLOAD","MEAN_MOTION_DDOT":"0.0000000000000","TLE_LINE1":"1 52359U 22045AE  23035.88082019  .00001026  00000-0  82544-4 0  9992","RA_OF_ASC_NODE":"226.5405","GP_ID":"224442945","NORAD_CAT_ID":"52359","ELEMENT_SET_NO":"999","EPHEMERIS_TYPE":"0","CLASSIFICATION_TYPE":"U","LAUNCH_DATE":"2022-04-29","APOAPSIS":"540.640","BSTAR":"0.00008254400000","TIME_SYSTEM":"UTC","MEAN_ELEMENT_THEORY":"SGP4","RCS_SIZE":"LARGE","OBJECT_ID":"2022-045AE","PERIOD":"95.437","REV_AT_EPOCH":"4537","CENTER_NAME":"EARTH"},{"REV_AT_EPOCH":"4549","CENTER_NAME":"EARTH","RCS_SIZE":"LARGE","OBJECT_ID":"2022-045AF","PERIOD":"95.436","BSTAR":"0.00013081000000","TIME_SYSTEM":"UTC","MEAN_ELEMENT_THEORY":"SGP4","ELEMENT_SET_NO":"999","CLASSIFICATION_TYPE":"U","EPHEMERIS_TYPE":"0","LAUNCH_DATE":"2022-04-29","APOAPSIS":"540.253","RA_OF_ASC_NODE":"216.6424","TLE_LINE1":"1 52360U 22045AF  23035.85963157  .00001796  00000-0  13081-3 0  9995","GP_ID":"224441212","NORAD_CAT_ID":"52360","OBJECT_TYPE":"PAYLOAD","MEAN_MOTION_DDOT":"0.0000000000000","ECCENTRICITY":"0.00008750","COUNTRY_CODE":"US","MEAN_MOTION_DOT":"0.00001796","FILE":"3772514","MEAN_ANOMALY":"282.6703","SITE":"AFETR","OBJECT_NAME":"STARLINK-3824","SEMIMAJOR_AXIS":"6917.783","EPOCH":"2023-02-04T20:37:52.167648","DECAY_DATE":null,"PERIAPSIS":"539.042","REF_FRAME":"TEME","ARG_OF_PERICENTER":"77.4387","INCLINATION":"53.2149","TLE_LINE2":"2 52360  53.2149 216.6424 0000875  77.4387 282.6703 15.08871946 45492","MEAN_MOTION":"15.08871946"},{"MEAN_ELEMENT_THEORY":"SGP4","BSTAR":"0.00029038000000","TIME_SYSTEM":"UTC","LAUNCH_DATE":"2022-04-29","APOAPSIS":"540.739","EPHEMERIS_TYPE":"0","ELEMENT_SET_NO":"999","CLASSIFICATION_TYPE":"U","NORAD_CAT_ID":"52361","TLE_LINE1":"1 52361U 22045AG  23035.80722602  .00004335  00000-0  29038-3 0  9990","RA_OF_ASC_NODE":"226.8713","GP_ID":"224441461","REV_AT_EPOCH":"4536","CENTER_NAME":"EARTH","PERIOD":"95.438","RCS_SIZE":"LARGE","OBJECT_ID":"2022-045AG","SITE":"AFETR","OBJECT_NAME":"STARLINK-3728","SEMIMAJOR_AXIS":"6917.917","EPOCH":"2023-02-04T19:22:24.328128","TLE_LINE2":"2 52361  53.2153 226.8713 0001384 101.1453 258.9695 15.08828060 45368","MEAN_MOTION":"15.08828060","DECAY_DATE":null,"REF_FRAME":"TEME","PERIAPSIS":"538.824","INCLINATION":"53.2153","ARG_OF_PERICENTER":"101.1453","MEAN_MOTION_DDOT":"0.0000000000000","OBJECT_TYPE":"PAYLOAD","ECCENTRICITY":"0.00013840","FILE":"3772514","MEAN_ANOMALY":"258.9695","MEAN_MOTION_DOT":"0.00004335","COUNTRY_CODE":"US"},{"NORAD_CAT_ID":"52362","RA_OF_ASC_NODE":"216.9511","TLE_LINE1":"1 52362U 22045AH  23035.78973993  .00001961  00000-0  14123-3 0  9990","GP_ID":"224442710","LAUNCH_DATE":"2022-04-29","APOAPSIS":"540.527","CLASSIFICATION_TYPE":"U","ELEMENT_SET_NO":"999","EPHEMERIS_TYPE":"0","MEAN_ELEMENT_THEORY":"SGP4","TIME_SYSTEM":"UTC","BSTAR":"0.00014123000000","PERIOD":"95.437","OBJECT_ID":"2022-045AH","RCS_SIZE":"LARGE","REV_AT_EPOCH":"4549","CENTER_NAME":"EARTH","MEAN_MOTION":"15.08844565","TLE_LINE2":"2 52362  53.2141 216.9511 0001150  83.8347 276.2776 15.08844565 45496","PERIAPSIS":"538.936","DECAY_DATE":null,"REF_FRAME":"TEME","INCLINATION":"53.2141","ARG_OF_PERICENTER":"83.8347","EPOCH":"2023-02-04T18:57:13.529952","SEMIMAJOR_AXIS":"6917.866","OBJECT_NAME":"STARLINK-3848","SITE":"AFETR","MEAN_ANOMALY":"276.2776","FILE":"3772514","MEAN_MOTION_DOT":"0.00001961","COUNTRY_CODE":"US","ECCENTRICITY":"0.00011500","MEAN_MOTION_DDOT":"0.0000000000000","OBJECT_TYPE":"PAYLOAD"},{"EPOCH":"2023-02-04T19:17:06.517824","PERIAPSIS":"538.933","DECAY_DATE":null,"INCLINATION":"53.2124","REF_FRAME":"TEME","ARG_OF_PERICENTER":"95.9806","MEAN_MOTION":"15.08848800","TLE_LINE2":"2 52363  53.2124 226.8938 0001135  95.9806 264.1315 15.08848800 45365","SITE":"AFETR","SEMIMAJOR_AXIS":"6917.853","OBJECT_NAME":"STARLINK-3830","COUNTRY_CODE":"US","MEAN_MOTION_DOT":"0.00000128","MEAN_ANOMALY":"264.1315","FILE":"3772514","OBJECT_TYPE":"PAYLOAD","MEAN_MOTION_DDOT":"0.0000000000000","ECCENTRICITY":"0.00011350","EPHEMERIS_TYPE":"0","ELEMENT_SET_NO":"999","CLASSIFICATION_TYPE":"U","APOAPSIS":"540.504","LAUNCH_DATE":"2022-04-29","RA_OF_ASC_NODE":"226.8938","TLE_LINE1":"1 52363U 22045AJ  23035.80354766  .00000128  00000-0  26143-4 0  9995","GP_ID":"224442445","NORAD_CAT_ID":"52363","TIME_SYSTEM":"UTC","BSTAR":"0.00002614300000","MEAN_ELEMENT_THEORY":"SGP4","OBJECT_ID":"2022-045AJ","RCS_SIZE":"LARGE","PERIOD":"95.437","REV_AT_EPOCH":"4536","CENTER_NAME":"EARTH"},{"SITE":"AFETR","OBJECT_NAME":"STARLINK-3820","SEMIMAJOR_AXIS":"6917.869","EPOCH":"2023-02-04T21:58:46.588800","MEAN_MOTION":"15.08843884","TLE_LINE2":"2 52364  53.2164 216.3789 0001165  88.3918 271.7207 15.08843884 45519","ARG_OF_PERICENTER":"88.3918","DECAY_DATE":null,"PERIAPSIS":"538.928","REF_FRAME":"TEME","INCLINATION":"53.2164","MEAN_MOTION_DDOT":"0.0000000000000","OBJECT_TYPE":"PAYLOAD","ECCENTRICITY":"0.00011650","FILE":"3772514","MEAN_ANOMALY":"271.7207","COUNTRY_CODE":"US","MEAN_MOTION_DOT":"0.00000196","MEAN_ELEMENT_THEORY":"SGP4","BSTAR":"0.00003036500000","TIME_SYSTEM":"UTC","LAUNCH_DATE":"2022-04-29","APOAPSIS":"540.539","CLASSIFICATION_TYPE":"U","ELEMENT_SET_NO":"999","EPHEMERIS_TYPE":"0","NORAD_CAT_ID":"52364","TLE_LINE1":"1 52364U 22045AK  23035.91581700  .00000196  00000-0  30365-4 0  9994","RA_OF_ASC_NODE":"216.3789","GP_ID":"224441712","REV_AT_EPOCH":"4551","CENTER_NAME":"EARTH","PERIOD":"95.437","RCS_SIZE":"LARGE","OBJECT_ID":"2022-045AK"},{"APOAPSIS":"540.571","LAUNCH_DATE":"2022-04-29","EPHEMERIS_TYPE":"0","ELEMENT_SET_NO":"999","CLASSIFICATION_TYPE":"U","NORAD_CAT_ID":"52365","GP_ID":"224441962","TLE_LINE1":"1 52365U 22045AL  23035.86334161  .00000675  00000-0  60491-4 0  9991","RA_OF_ASC_NODE":"216.6139","MEAN_ELEMENT_THEORY":"SGP4","TIME_SYSTEM":"UTC","BSTAR":"0.00006049100000","PERIOD":"95.437","OBJECT_ID":"2022-045AL","RCS_SIZE":"LARGE","REV_AT_EPOCH":"4550","CENTER_NAME":"EARTH","EPOCH":"2023-02-04T20:43:12.715104","TLE_LINE2":"2 52365  53.2163 216.6139 0001199  94.9594 265.1535 15.08841170 45507","MEAN_MOTION":"15.08841170","DECAY_DATE":null,"PERIAPSIS":"538.912","ARG_OF_PERICENTER":"94.9594","INCLINATION":"53.2163","REF_FRAME":"TEME","SITE":"AFETR","SEMIMAJOR_AXIS":"6917.877","OBJECT_NAME":"STARLINK-3874","MEAN_ANOMALY":"265.1535","FILE":"3772514","COUNTRY_CODE":"US","MEAN_MOTION_DOT":"0.00000675","MEAN_MOTION_DDOT":"0.0000000000000","OBJECT_TYPE":"PAYLOAD","ECCENTRICITY":"0.00011990"},{"DECAY_DATE":null,"PERIAPSIS":"538.908","REF_FRAME":"TEME","INCLINATION":"53.2159","ARG_OF_PERICENTER":"83.8185","TLE_LINE2":"2 52366  53.2159 216.3994 0001183  83.8185 276.2942 15.08846109 45518","MEAN_MOTION":"15.08846109","EPOCH":"2023-02-04T21:52:05.884608","SEMIMAJOR_AXIS":"6917.862","OBJECT_NAME":"STARLINK-3808","SITE":"AFETR","COUNTRY_CODE":"US","MEAN_MOTION_DOT":"0.00001015","MEAN_ANOMALY":"276.2942","FILE":"3772514","ECCENTRICITY":"0.00011830","OBJECT_TYPE":"PAYLOAD","MEAN_MOTION_DDOT":"0.0000000000000","TLE_LINE1":"1 52366U 22045AM  23035.91117922  .00001015  00000-0  81841-4 0  9993","RA_OF_ASC_NODE":"216.3994","GP_ID":"224442210","NORAD_CAT_ID":"52366","EPHEMERIS_TYPE":"0","ELEMENT_SET_NO":"999","CLASSIFICATION_TYPE":"U","LAUNCH_DATE":"2022-04-29","APOAPSIS":"540.545","TIME_SYSTEM":"UTC","BSTAR":"0.00008184100000","MEAN_ELEMENT_THEORY":"SGP4","OBJECT_ID":"2022-045AM","RCS_SIZE":"LARGE","PERIOD":"95.437","CENTER_NAME":"EARTH","REV_AT_EPOCH":"4551"},{"CENTER_NAME":"EARTH","REV_AT_EPOCH":"4551","PERIOD":"95.437","RCS_SIZE":"LARGE","OBJECT_ID":"2022-045AN","MEAN_ELEMENT_THEORY":"SGP4","BSTAR":"0.00004800300000","TIME_SYSTEM":"UTC","NORAD_CAT_ID":"52367","TLE_LINE1":"1 52367U 22045AN  23035.91854202  .00000476  00000-0  48003-4 0  9996","RA_OF_ASC_NODE":"216.3680","GP_ID":"224442946","LAUNCH_DATE":"2022-04-29","APOAPSIS":"540.569","ELEMENT_SET_NO":"999","EPHEMERIS_TYPE":"0","CLASSIFICATION_TYPE":"U","ECCENTRICITY":"0.00011960","MEAN_MOTION_DDOT":"0.0000000000000","OBJECT_TYPE":"PAYLOAD","FILE":"3772514","MEAN_ANOMALY":"271.9592","MEAN_MOTION_DOT":"0.00000476","COUNTRY_CODE":"US","OBJECT_NAME":"STARLINK-3817","SEMIMAJOR_AXIS":"6917.876","SITE":"AFETR","MEAN_MOTION":"15.08841276","TLE_LINE2":"2 52367  53.2167 216.3680 0001196  88.1537 271.9592 15.08841276 45516","PERIAPSIS":"538.914","DECAY_DATE":null,"REF_FRAME":"TEME","INCLINATION":"53.2167","ARG_OF_PERICENTER":"88.1537","EPOCH":"2023-02-04T22:02:42.030528"}];
